CCSDS_OMM_VERS = 2.0
CREATION_DATE  = 
ORIGINATOR     = 

OBJECT_NAME    = ALOS-2
OBJECT_ID      = 2014-029A
CENTER_NAME    = EARTH
REF_FRAME      = TEME
TIME_SYSTEM    = UTC
MEAN_ELEMENT_THEORY = SGP/SGP4

EPOCH          = 2026-03-09T20:29:52.792800
MEAN_MOTION    = 14.79504300
ECCENTRICITY   = .0001434
INCLINATION    = 97.9188
RA_OF_ASC_NODE = 167.4487
ARG_OF_PERICENTER = 94.3499
MEAN_ANOMALY   = 265.7876

EPHEMERIS_TYPE = 0
CLASSIFICATION_TYPE = U
NORAD_CAT_ID   = 39766
ELEMENT_SET_NO = 999
REV_AT_EPOCH   = 63689
BSTAR          = .22033E-3
MEAN_MOTION_DOT = .1596E-4
MEAN_MOTION_DDOT = 0

CCSDS_OMM_VERS = 2.0
CREATION_DATE  = 
ORIGINATOR     = 

OBJECT_NAME    = YAOGAN-29
OBJECT_ID      = 2015-069A
CENTER_NAME    = EARTH
REF_FRAME      = TEME
TIME_SYSTEM    = UTC
MEAN_ELEMENT_THEORY = SGP/SGP4

EPOCH          = 2026-03-09T20:41:12.579360
MEAN_MOTION    = 14.82995185
ECCENTRICITY   = .0001924
INCLINATION    = 98.0144
RA_OF_ASC_NODE = 97.2918
ARG_OF_PERICENTER = 36.9695
MEAN_ANOMALY   = 323.1650

EPHEMERIS_TYPE = 0
CLASSIFICATION_TYPE = U
NORAD_CAT_ID   = 41038
ELEMENT_SET_NO = 999
REV_AT_EPOCH   = 55590
BSTAR          = .30778E-4
MEAN_MOTION_DOT = .196E-5
MEAN_MOTION_DDOT = 0

CCSDS_OMM_VERS = 2.0
CREATION_DATE  = 
ORIGINATOR     = 

OBJECT_NAME    = ASTRO-H (HITOMI)
OBJECT_ID      = 2016-012A
CENTER_NAME    = EARTH
REF_FRAME      = TEME
TIME_SYSTEM    = UTC
MEAN_ELEMENT_THEORY = SGP/SGP4

EPOCH          = 2026-03-09T04:06:47.322720
MEAN_MOTION    = 15.10001629
ECCENTRICITY   = .0009877
INCLINATION    = 31.0008
RA_OF_ASC_NODE = 359.8923
ARG_OF_PERICENTER = 325.8962
MEAN_ANOMALY   = 34.1041

EPHEMERIS_TYPE = 0
CLASSIFICATION_TYPE = U
NORAD_CAT_ID   = 41337
ELEMENT_SET_NO = 999
REV_AT_EPOCH   = 55215
BSTAR          = .25536822E-3
MEAN_MOTION_DOT = .4351E-4
MEAN_MOTION_DDOT = 0

CCSDS_OMM_VERS = 2.0
CREATION_DATE  = 
ORIGINATOR     = 

OBJECT_NAME    = HXMT (HUIYAN)
OBJECT_ID      = 2017-034A
CENTER_NAME    = EARTH
REF_FRAME      = TEME
TIME_SYSTEM    = UTC
MEAN_ELEMENT_THEORY = SGP/SGP4

EPOCH          = 2026-03-09T21:49:22.101312
MEAN_MOTION    = 15.17467944
ECCENTRICITY   = .0032951
INCLINATION    = 43.0157
RA_OF_ASC_NODE = 15.4521
ARG_OF_PERICENTER = 237.3240
MEAN_ANOMALY   = 122.4429

EPHEMERIS_TYPE = 0
CLASSIFICATION_TYPE = U
NORAD_CAT_ID   = 42758
ELEMENT_SET_NO = 999
REV_AT_EPOCH   = 48257
BSTAR          = .38825E-3
MEAN_MOTION_DOT = .7794E-4
MEAN_MOTION_DDOT = 0

CCSDS_OMM_VERS = 2.0
CREATION_DATE  = 
ORIGINATOR     = 

OBJECT_NAME    = SAOCOM 1A
OBJECT_ID      = 2018-076A
CENTER_NAME    = EARTH
REF_FRAME      = TEME
TIME_SYSTEM    = UTC
MEAN_ELEMENT_THEORY = SGP/SGP4

EPOCH          = 2026-03-09T19:52:16.994208
MEAN_MOTION    = 14.82173547
ECCENTRICITY   = .0001328
INCLINATION    = 97.8894
RA_OF_ASC_NODE = 256.9984
ARG_OF_PERICENTER = 84.0114
MEAN_ANOMALY   = 276.1250

EPHEMERIS_TYPE = 0
CLASSIFICATION_TYPE = U
NORAD_CAT_ID   = 43641
ELEMENT_SET_NO = 999
REV_AT_EPOCH   = 40138
BSTAR          = .18317E-3
MEAN_MOTION_DOT = .1407E-4
MEAN_MOTION_DDOT = 0

CCSDS_OMM_VERS = 2.0
CREATION_DATE  = 
ORIGINATOR     = 

OBJECT_NAME    = H-2A R/B
OBJECT_ID      = 2018-084L
CENTER_NAME    = EARTH
REF_FRAME      = TEME
TIME_SYSTEM    = UTC
MEAN_ELEMENT_THEORY = SGP/SGP4

EPOCH          = 2026-03-09T14:28:20.133120
MEAN_MOTION    = 15.41344491
ECCENTRICITY   = .0025468
INCLINATION    = 98.8729
RA_OF_ASC_NODE = 285.9721
ARG_OF_PERICENTER = 25.6211
MEAN_ANOMALY   = 334.6287

EPHEMERIS_TYPE = 0
CLASSIFICATION_TYPE = U
NORAD_CAT_ID   = 43682
ELEMENT_SET_NO = 999
REV_AT_EPOCH   = 40576
BSTAR          = .49941E-3
MEAN_MOTION_DOT = .2099E-3
MEAN_MOTION_DDOT = 0

CCSDS_OMM_VERS = 2.0
CREATION_DATE  = 
ORIGINATOR     = 

OBJECT_NAME    = SAOCOM 1B
OBJECT_ID      = 2020-059A
CENTER_NAME    = EARTH
REF_FRAME      = TEME
TIME_SYSTEM    = UTC
MEAN_ELEMENT_THEORY = SGP/SGP4

EPOCH          = 2026-03-06T22:57:01.124064
MEAN_MOTION    = 14.82173062
ECCENTRICITY   = .00015046
INCLINATION    = 97.8885
RA_OF_ASC_NODE = 253.2654
ARG_OF_PERICENTER = 81.2285
MEAN_ANOMALY   = 278.9098

EPHEMERIS_TYPE = 0
CLASSIFICATION_TYPE = U
NORAD_CAT_ID   = 46265
ELEMENT_SET_NO = 999
REV_AT_EPOCH   = 29834
BSTAR          = .17595012E-3
MEAN_MOTION_DOT = .1349E-4
MEAN_MOTION_DDOT = 0

CCSDS_OMM_VERS = 2.0
CREATION_DATE  = 
ORIGINATOR     = 

OBJECT_NAME    = CSS (TIANHE)
OBJECT_ID      = 2021-035A
CENTER_NAME    = EARTH
REF_FRAME      = TEME
TIME_SYSTEM    = UTC
MEAN_ELEMENT_THEORY = SGP/SGP4

EPOCH          = 2026-03-09T14:06:08.150112
MEAN_MOTION    = 15.60651211
ECCENTRICITY   = .0006982
INCLINATION    = 41.4666
RA_OF_ASC_NODE = 208.7841
ARG_OF_PERICENTER = 272.7102
MEAN_ANOMALY   = 87.2938

EPHEMERIS_TYPE = 0
CLASSIFICATION_TYPE = U
NORAD_CAT_ID   = 48274
ELEMENT_SET_NO = 999
REV_AT_EPOCH   = 27759
BSTAR          = .29943E-3
MEAN_MOTION_DOT = .25302E-3
MEAN_MOTION_DDOT = 0

CCSDS_OMM_VERS = 2.0
CREATION_DATE  = 
ORIGINATOR     = 

OBJECT_NAME    = COSMOS 2550
OBJECT_ID      = 2021-056A
CENTER_NAME    = EARTH
REF_FRAME      = TEME
TIME_SYSTEM    = UTC
MEAN_ELEMENT_THEORY = SGP/SGP4

EPOCH          = 2026-03-08T11:22:34.326624
MEAN_MOTION    = 15.33829151
ECCENTRICITY   = .00083692
INCLINATION    = 67.1451
RA_OF_ASC_NODE = 44.6088
ARG_OF_PERICENTER = 269.6014
MEAN_ANOMALY   = 90.4182

EPHEMERIS_TYPE = 0
CLASSIFICATION_TYPE = U
NORAD_CAT_ID   = 48865
ELEMENT_SET_NO = 999
REV_AT_EPOCH   = 26327
BSTAR          = -.13338E-7
MEAN_MOTION_DOT = -.192E-5
MEAN_MOTION_DDOT = 0

CCSDS_OMM_VERS = 2.0
CREATION_DATE  = 
ORIGINATOR     = 

OBJECT_NAME    = CZ-2C R/B
OBJECT_ID      = 2022-058K
CENTER_NAME    = EARTH
REF_FRAME      = TEME
TIME_SYSTEM    = UTC
MEAN_ELEMENT_THEORY = SGP/SGP4

EPOCH          = 2026-03-09T03:02:18.075840
MEAN_MOTION    = 15.54191438
ECCENTRICITY   = .00421595
INCLINATION    = 50.1894
RA_OF_ASC_NODE = 321.1865
ARG_OF_PERICENTER = 198.4704
MEAN_ANOMALY   = 161.4738

EPHEMERIS_TYPE = 0
CLASSIFICATION_TYPE = U
NORAD_CAT_ID   = 52794
ELEMENT_SET_NO = 999
REV_AT_EPOCH   = 21004
BSTAR          = .62256153E-3
MEAN_MOTION_DOT = .42727E-3
MEAN_MOTION_DDOT = 0

CCSDS_OMM_VERS = 2.0
CREATION_DATE  = 
ORIGINATOR     = 

OBJECT_NAME    = CZ-2C R/B
OBJECT_ID      = 2022-132E
CENTER_NAME    = EARTH
REF_FRAME      = TEME
TIME_SYSTEM    = UTC
MEAN_ELEMENT_THEORY = SGP/SGP4

EPOCH          = 2026-03-09T13:31:58.213344
MEAN_MOTION    = 15.61827128
ECCENTRICITY   = .0020632
INCLINATION    = 97.2972
RA_OF_ASC_NODE = 71.8768
ARG_OF_PERICENTER = 91.8631
MEAN_ANOMALY   = 268.4991

EPHEMERIS_TYPE = 0
CLASSIFICATION_TYPE = U
NORAD_CAT_ID   = 54039
ELEMENT_SET_NO = 999
REV_AT_EPOCH   = 19035
BSTAR          = .45659E-3
MEAN_MOTION_DOT = .39978E-3
MEAN_MOTION_DDOT = 0

CCSDS_OMM_VERS = 2.0
CREATION_DATE  = 
ORIGINATOR     = 

OBJECT_NAME    = GSLV R/B
OBJECT_ID      = 2022-138AN
CENTER_NAME    = EARTH
REF_FRAME      = TEME
TIME_SYSTEM    = UTC
MEAN_ELEMENT_THEORY = SGP/SGP4

EPOCH          = 2026-03-09T17:17:59.229888
MEAN_MOTION    = 14.96774296
ECCENTRICITY   = .002302
INCLINATION    = 87.3876
RA_OF_ASC_NODE = 166.3520
ARG_OF_PERICENTER = 146.6269
MEAN_ANOMALY   = 213.6419

EPHEMERIS_TYPE = 0
CLASSIFICATION_TYPE = U
NORAD_CAT_ID   = 54149
ELEMENT_SET_NO = 999
REV_AT_EPOCH   = 18393
BSTAR          = .32105E-3
MEAN_MOTION_DOT = .3719E-4
MEAN_MOTION_DDOT = 0

